TEVEL2-2                
1 63219U 25052K   26068.64848259  .00020339  00000+0  69428-3 0  9991
2 63219  97.3987 324.7700 0004693 105.7930 254.3828 15.30343745 54855
STARLINK-35555          
1 66425U 25259D   26068.90489913  .00026607  00000+0  97246-3 0  9992
2 66425  43.0001 273.1798 0002471 269.0113  91.0456 15.27594706 19524
